[{"OBJECT_NAME":"STARLINK-30959","OBJECT_ID":"2023-183F","EPOCH":"2026-03-09T23:17:23.328096","MEAN_MOTION":15.26773762,"ECCENTRICITY":0.00012731,"INCLINATION":43.003,"RA_OF_ASC_NODE":39.4885,"ARG_OF_PERICENTER":267.6758,"MEAN_ANOMALY":92.3948,"EPHEMERIS_TYPE":0,"CLASSIFICATION_TYPE":"U","NORAD_CAT_ID":58442,"ELEMENT_SET_NO":999,"REV_AT_EPOCH":12678,"BSTAR":-8.9464489e-5,"MEAN_MOTION_DOT":-2.661e-5,"MEAN_MOTION_DDOT":0},{"OBJECT_NAME":"FLOCK 4G-12","OBJECT_ID":"2025-009S","EPOCH":"2026-03-09T17:16:21.445824","MEAN_MOTION":15.27059194,"ECCENTRICITY":0.00028933,"INCLINATION":97.4059,"RA_OF_ASC_NODE":151.1894,"ARG_OF_PERICENTER":310.1775,"MEAN_ANOMALY":49.9211,"EPHEMERIS_TYPE":0,"CLASSIFICATION_TYPE":"U","NORAD_CAT_ID":62625,"ELEMENT_SET_NO":999,"REV_AT_EPOCH":6371,"BSTAR":0.00043519262,"MEAN_MOTION_DOT":0.00011487,"MEAN_MOTION_DDOT":0}]
